[{"OBJECT_NAME":"STARLINK-31997","OBJECT_ID":"2024-132L","EPOCH":"2025-12-08T02:37:27.185088","MEAN_MOTION":15.30176435,"ECCENTRICITY":0.00013995,"INCLINATION":53.1615,"RA_OF_ASC_NODE":117.4816,"ARG_OF_PERICENTER":98.8077,"MEAN_ANOMALY":261.3082,"EPHEMERIS_TYPE":0,"CLASSIFICATION_TYPE":"U","NORAD_CAT_ID":60288,"ELEMENT_SET_NO":999,"REV_AT_EPOCH":7754,"BSTAR":-5.4628016e-5,"MEAN_MOTION_DOT":-1.976e-5,"MEAN_MOTION_DDOT":0},{"OBJECT_NAME":"STARLINK-32000","OBJECT_ID":"2024-132M","EPOCH":"2025-12-08T02:04:10.515648","MEAN_MOTION":15.30188644,"ECCENTRICITY":9.809e-5,"INCLINATION":53.1586,"RA_OF_ASC_NODE":118.0519,"ARG_OF_PERICENTER":73.028,"MEAN_ANOMALY":287.0828,"EPHEMERIS_TYPE":0,"CLASSIFICATION_TYPE":"U","NORAD_CAT_ID":60289,"ELEMENT_SET_NO":999,"REV_AT_EPOCH":7753,"BSTAR":7.700302e-5,"MEAN_MOTION_DOT":1.921e-5,"MEAN_MOTION_DDOT":0},{"OBJECT_NAME":"STARLINK-32141","OBJECT_ID":"2024-132N","EPOCH":"2025-12-07T16:17:02.792256","MEAN_MOTION":15.30197394,"ECCENTRICITY":0.00010486,"INCLINATION":53.1611,"RA_OF_ASC_NODE":119.775,"ARG_OF_PERICENTER":82.5884,"MEAN_ANOMALY":277.5235,"EPHEMERIS_TYPE":0,"CLASSIFICATION_TYPE":"U","NORAD_CAT_ID":60290,"ELEMENT_SET_NO":999,"REV_AT_EPOCH":7747,"BSTAR":3.407827e-5,"MEAN_MOTION_DOT":6.5e-6,"MEAN_MOTION_DDOT":0},{"OBJECT_NAME":"STARLINK-32142","OBJECT_ID":"2024-132P","EPOCH":"2025-12-08T02:45:02.048256","MEAN_MOTION":15.30189639,"ECCENTRICITY":0.0001941,"INCLINATION":53.161,"RA_OF_ASC_NODE":117.517,"ARG_OF_PERICENTER":77.8858,"MEAN_ANOMALY":282.236,"EPHEMERIS_TYPE":0,"CLASSIFICATION_TYPE":"U","NORAD_CAT_ID":60291,"ELEMENT_SET_NO":999,"REV_AT_EPOCH":7754,"BSTAR":4.5589044e-5,"MEAN_MOTION_DOT":9.9e-6,"MEAN_MOTION_DDOT":0},{"OBJECT_NAME":"STARLINK-32149","OBJECT_ID":"2024-132Q","EPOCH":"2025-12-08T02:08:42.681696","MEAN_MOTION":15.30222951,"ECCENTRICITY":0.00012904,"INCLINATION":53.1596,"RA_OF_ASC_NODE":118.0727,"ARG_OF_PERICENTER":144.1409,"MEAN_ANOMALY":215.9679,"EPHEMERIS_TYPE":0,"CLASSIFICATION_TYPE":"U","NORAD_CAT_ID":60292,"ELEMENT_SET_NO":999,"REV_AT_EPOCH":7753,"BSTAR":-0.00022768193,"MEAN_MOTION_DOT":-7.101e-5,"MEAN_MOTION_DDOT":0},{"OBJECT_NAME":"STARLINK-32159","OBJECT_ID":"2024-132R","EPOCH":"2025-12-08T02:41:59.314848","MEAN_MOTION":15.30191976,"ECCENTRICITY":0.00010982,"INCLINATION":53.1612,"RA_OF_ASC_NODE":117.5026,"ARG_OF_PERICENTER":87.5467,"MEAN_ANOMALY":272.5659,"EPHEMERIS_TYPE":0,"CLASSIFICATION_TYPE":"U","NORAD_CAT_ID":60293,"ELEMENT_SET_NO":999,"REV_AT_EPOCH":7754,"BSTAR":1.8662885e-5,"MEAN_MOTION_DOT":1.94e-6,"MEAN_MOTION_DDOT":0},{"OBJECT_NAME":"STARLINK-32150","OBJECT_ID":"2024-132S","EPOCH":"2025-12-08T02:13:17.070816","MEAN_MOTION":15.30191066,"ECCENTRICITY":9.974e-5,"INCLINATION":53.1599,"RA_OF_ASC_NODE":118.0925,"ARG_OF_PERICENTER":98.0613,"MEAN_ANOMALY":262.0501,"EPHEMERIS_TYPE":0,"CLASSIFICATION_TYPE":"U","NORAD_CAT_ID":60294,"ELEMENT_SET_NO":999,"REV_AT_EPOCH":7753,"BSTAR":1.9180165e-5,"MEAN_MOTION_DOT":2.09e-6,"MEAN_MOTION_DDOT":0},{"OBJECT_NAME":"STARLINK-32126","OBJECT_ID":"2024-132T","EPOCH":"2025-12-08T02:31:31.337184","MEAN_MOTION":15.3018629,"ECCENTRICITY":0.00012135,"INCLINATION":53.1612,"RA_OF_ASC_NODE":118.168,"ARG_OF_PERICENTER":84.4259,"MEAN_ANOMALY":275.688,"EPHEMERIS_TYPE":0,"CLASSIFICATION_TYPE":"U","NORAD_CAT_ID":60295,"ELEMENT_SET_NO":999,"REV_AT_EPOCH":7753,"BSTAR":9.45961e-6,"MEAN_MOTION_DOT":-7.9e-7,"MEAN_MOTION_DDOT":0},{"OBJECT_NAME":"STARLINK-32143","OBJECT_ID":"2024-132U","EPOCH":"2025-12-08T02:17:50.672832","MEAN_MOTION":15.3018883,"ECCENTRICITY":0.00011176,"INCLINATION":53.161,"RA_OF_ASC_NODE":118.1128,"ARG_OF_PERICENTER":98.8003,"MEAN_ANOMALY":261.3124,"EPHEMERIS_TYPE":0,"CLASSIFICATION_TYPE":"U","NORAD_CAT_ID":60296,"ELEMENT_SET_NO":999,"REV_AT_EPOCH":7753,"BSTAR":-6.655376e-6,"MEAN_MOTION_DOT":-5.56e-6,"MEAN_MOTION_DDOT":0},{"OBJECT_NAME":"STARLINK-32034","OBJECT_ID":"2024-132V","EPOCH":"2025-12-08T01:58:31.116576","MEAN_MOTION":15.29845927,"ECCENTRICITY":0.00043421,"INCLINATION":53.1607,"RA_OF_ASC_NODE":118.0269,"ARG_OF_PERICENTER":102.888,"MEAN_ANOMALY":257.2606,"EPHEMERIS_TYPE":0,"CLASSIFICATION_TYPE":"U","NORAD_CAT_ID":60297,"ELEMENT_SET_NO":999,"REV_AT_EPOCH":7753,"BSTAR":-0.0015923904,"MEAN_MOTION_DOT":-0.00046732,"MEAN_MOTION_DDOT":0},{"OBJECT_NAME":"STARLINK-32124","OBJECT_ID":"2024-132W","EPOCH":"2025-12-08T02:16:19.583904","MEAN_MOTION":15.30189269,"ECCENTRICITY":0.0001391,"INCLINATION":53.1607,"RA_OF_ASC_NODE":118.1037,"ARG_OF_PERICENTER":84.8347,"MEAN_ANOMALY":275.2813,"EPHEMERIS_TYPE":0,"CLASSIFICATION_TYPE":"U","NORAD_CAT_ID":60298,"ELEMENT_SET_NO":999,"REV_AT_EPOCH":7753,"BSTAR":1.8174221e-5,"MEAN_MOTION_DOT":1.79e-6,"MEAN_MOTION_DDOT":0},{"OBJECT_NAME":"STARLINK-32151","OBJECT_ID":"2024-132X","EPOCH":"2025-12-08T07:01:58.764864","MEAN_MOTION":15.30191624,"ECCENTRICITY":0.00013022,"INCLINATION":53.1597,"RA_OF_ASC_NODE":88.5161,"ARG_OF_PERICENTER":88.1323,"MEAN_ANOMALY":271.9826,"EPHEMERIS_TYPE":0,"CLASSIFICATION_TYPE":"U","NORAD_CAT_ID":60299,"ELEMENT_SET_NO":999,"REV_AT_EPOCH":7796,"BSTAR":-2.4312829e-5,"MEAN_MOTION_DOT":-1.079e-5,"MEAN_MOTION_DDOT":0},{"OBJECT_NAME":"STARLINK-32134","OBJECT_ID":"2024-132Y","EPOCH":"2025-12-07T16:20:05.201664","MEAN_MOTION":15.30197501,"ECCENTRICITY":0.00010033,"INCLINATION":53.1597,"RA_OF_ASC_NODE":119.7852,"ARG_OF_PERICENTER":86.418,"MEAN_ANOMALY":273.6936,"EPHEMERIS_TYPE":0,"CLASSIFICATION_TYPE":"U","NORAD_CAT_ID":60300,"ELEMENT_SET_NO":999,"REV_AT_EPOCH":7747,"BSTAR":4.1091429e-5,"MEAN_MOTION_DOT":8.58e-6,"MEAN_MOTION_DDOT":0},{"OBJECT_NAME":"STARLINK-11147 [DTC]","OBJECT_ID":"2024-133A","EPOCH":"2025-12-08T00:31:18.179616","MEAN_MOTION":15.69714762,"ECCENTRICITY":0.00010989,"INCLINATION":53.1567,"RA_OF_ASC_NODE":238.3345,"ARG_OF_PERICENTER":101.4121,"MEAN_ANOMALY":258.702,"EPHEMERIS_TYPE":0,"CLASSIFICATION_TYPE":"U","NORAD_CAT_ID":60301,"ELEMENT_SET_NO":999,"REV_AT_EPOCH":7933,"BSTAR":5.3941221e-5,"MEAN_MOTION_DOT":5.952e-5,"MEAN_MOTION_DDOT":0},{"OBJECT_NAME":"STARLINK-11128 [DTC]","OBJECT_ID":"2024-133B","EPOCH":"2025-12-08T00:24:13.495104","MEAN_MOTION":15.69719722,"ECCENTRICITY":0.00013832,"INCLINATION":53.1603,"RA_OF_ASC_NODE":238.2996,"ARG_OF_PERICENTER":111.3128,"MEAN_ANOMALY":248.8037,"EPHEMERIS_TYPE":0,"CLASSIFICATION_TYPE":"U","NORAD_CAT_ID":60302,"ELEMENT_SET_NO":999,"REV_AT_EPOCH":7933,"BSTAR":6.472742e-6,"MEAN_MOTION_DOT":1.95e-6,"MEAN_MOTION_DDOT":0},{"OBJECT_NAME":"STARLINK-11227 [DTC]","OBJECT_ID":"2024-133C","EPOCH":"2025-12-08T00:17:10.180896","MEAN_MOTION":15.6971862,"ECCENTRICITY":0.00010726,"INCLINATION":53.1577,"RA_OF_ASC_NODE":238.2677,"ARG_OF_PERICENTER":106.3653,"MEAN_ANOMALY":253.7483,"EPHEMERIS_TYPE":0,"CLASSIFICATION_TYPE":"U","NORAD_CAT_ID":60303,"ELEMENT_SET_NO":999,"REV_AT_EPOCH":7941,"BSTAR":7.9897992e-5,"MEAN_MOTION_DOT":9.105e-5,"MEAN_MOTION_DDOT":0}]
