STARLINK-31997          
1 60288U 24132L   25342.10934242 -.00001976  00000+0 -54628-4 0  9990
2 60288  53.1615 117.4816 0001399  98.8077 261.3082 15.30176435 77546
STARLINK-32000          
1 60289U 24132M   25342.08623282  .00001921  00000+0  77003-4 0  9997
2 60289  53.1586 118.0519 0000980  73.0280 287.0828 15.30188644 77534
STARLINK-32141          
1 60290U 24132N   25341.67850454  .00000650  00000+0  34078-4 0  9999
2 60290  53.1611 119.7750 0001048  82.5884 277.5235 15.30197394 77472
STARLINK-32142          
1 60291U 24132P   25342.11460704  .00000990  00000+0  45589-4 0  9991
2 60291  53.1610 117.5170 0001941  77.8858 282.2360 15.30189639 77547
STARLINK-32149          
1 60292U 24132Q   25342.08938289 -.00007101  00000+0 -22768-3 0  9992
2 60292  53.1596 118.0727 0001290 144.1409 215.9679 15.30222951 77532
STARLINK-32159          
1 60293U 24132R   25342.11249207  .00000194  00000+0  18663-4 0  9995
2 60293  53.1612 117.5026 0001098  87.5467 272.5659 15.30191976 77548
STARLINK-32150          
1 60294U 24132S   25342.09255869  .00000209  00000+0  19180-4 0  9996
2 60294  53.1599 118.0925 0000997  98.0613 262.0501 15.30191066 77533
STARLINK-32126          
1 60295U 24132T   25342.10522381 -.00000079  00000+0  94596-5 0  9996
2 60295  53.1612 118.1680 0001213  84.4259 275.6880 15.30186290 77539
STARLINK-32143          
1 60296U 24132U   25342.09572538 -.00000556  00000+0 -66554-5 0  9998
2 60296  53.1610 118.1128 0001117  98.8003 261.3124 15.30188830 77539
STARLINK-32034          
1 60297U 24132V   25342.08230459 -.00046732  00000+0 -15924-2 0  9999
2 60297  53.1607 118.0269 0004342 102.8880 257.2606 15.29845927 77537
STARLINK-32124          
1 60298U 24132W   25342.09467111  .00000179  00000+0  18174-4 0  9993
2 60298  53.1607 118.1037 0001391  84.8347 275.2813 15.30189269 77532
STARLINK-32151          
1 60299U 24132X   25342.29304126 -.00001079  00000+0 -24313-4 0  9996
2 60299  53.1597  88.5161 0001302  88.1323 271.9826 15.30191624 77964
STARLINK-32134          
1 60300U 24132Y   25341.68061576  .00000858  00000+0  41091-4 0  9994
2 60300  53.1597 119.7852 0001003  86.4180 273.6936 15.30197501 77478
STARLINK-11147 [DTC]    
1 60301U 24133A   25342.02173819  .00005952  00000+0  53941-4 0  9996
2 60301  53.1567 238.3345 0001098 101.4121 258.7020 15.69714762 79339
STARLINK-11128 [DTC]    
1 60302U 24133B   25342.01682286  .00000195  00000+0  64727-5 0  9998
2 60302  53.1603 238.2996 0001383 111.3128 248.8037 15.69719722 79335
STARLINK-11227 [DTC]    
1 60303U 24133C   25342.01192339  .00009105  00000+0  79898-4 0  9998
2 60303  53.1577 238.2677 0001072 106.3653 253.7483 15.69718620 79419
